0 METEOR 1-14
1 06392U 73015A   13283.13565903  .00000219  00000-0  12282-3 0    31
2 06392 081.2445 101.3568 0010955 030.6722 107.3089 14.07361977 81125
0 METEOR 1-14
1 06392U 73015A   13286.12178992  .00000179  00000-0  99059-4 0    56
2 06392 081.2448 098.4630 0010784 023.0517 115.7642 14.07363897 81549
0 METEOR 1-14
1 06392U 73015A   13287.45645312  .00000166  00000-0  91087-4 0    68
2 06392 081.2450 097.1697 0010706 019.6210 037.5189 14.07364674 81738
0 METEOR 1-14
1 06392U 73015A   13288.82161133  .00000173  00000-0  95466-4 0    78
2 06392 081.2453 095.8467 0010631 016.5820 113.3044 14.07365431 81927
0 METEOR 1-14
1 06392U 73015A   13290.03143845  .00000144  00000-0  78237-4 0    80
2 06392 081.2456 094.6745 0010565 013.3356 122.7489 14.07365940 82092
0 METEOR 1-14
1 06392U 73015A   13291.16639015  .00000139  00000-0  75179-4 0    91
2 06392 081.2458 093.5748 0010482 010.4449 112.6950 14.07366295 82257
0 METEOR 1-14
1 06392U 73015A   13292.43305480  .00000146  00000-0  79466-4 0   101
2 06392 081.2460 092.3476 0010404 007.1853 049.9660 14.07366689 82438
0 METEOR 1-14
1 06392U 73015A   13293.79887387  .00000160  00000-0  87704-4 0   113
2 06392 081.2462 091.0243 0010304 003.6652 129.5890 14.07367092 82625
0 METEOR 1-14
1 06392U 73015A   13294.85984407  .00000161  00000-0  88302-4 0   129
2 06392 081.2462 089.9964 0010211 001.1670 104.5267 14.07367594 82775
0 METEOR 1-14
1 06392U 73015A   13295.86402947  .00000145  00000-0  79157-4 0   136
2 06392 081.2463 089.0236 0010139 358.2833 152.3093 14.07367920 82912
